[{"OBJECT_NAME":"ONEWEB-0012","OBJECT_ID":"2019-010A","EPOCH":"2026-01-11T04:01:08.437728","MEAN_MOTION":13.16594718,"ECCENTRICITY":0.00019051,"INCLINATION":87.9022,"RA_OF_ASC_NODE":260.0521,"ARG_OF_PERICENTER":71.9824,"MEAN_ANOMALY":288.1514,"EPHEMERIS_TYPE":0,"CLASSIFICATION_TYPE":"U","NORAD_CAT_ID":44057,"ELEMENT_SET_NO":999,"REV_AT_EPOCH":33090,"BSTAR":4.7859613e-5,"MEAN_MOTION_DOT":3.1e-7,"MEAN_MOTION_DDOT":0},{"OBJECT_NAME":"ONEWEB-0010","OBJECT_ID":"2019-010B","EPOCH":"2026-01-11T04:37:37.397280","MEAN_MOTION":13.16594755,"ECCENTRICITY":0.00011769,"INCLINATION":87.9032,"RA_OF_ASC_NODE":260.0396,"ARG_OF_PERICENTER":67.4268,"MEAN_ANOMALY":292.6987,"EPHEMERIS_TYPE":0,"CLASSIFICATION_TYPE":"U","NORAD_CAT_ID":44058,"ELEMENT_SET_NO":999,"REV_AT_EPOCH":33095,"BSTAR":0.00016389304,"MEAN_MOTION_DOT":7.6e-7,"MEAN_MOTION_DDOT":0},{"OBJECT_NAME":"ONEWEB-0008","OBJECT_ID":"2019-010C","EPOCH":"2026-01-11T03:24:39.923136","MEAN_MOTION":13.16594626,"ECCENTRICITY":0.00015295,"INCLINATION":87.9034,"RA_OF_ASC_NODE":260.047,"ARG_OF_PERICENTER":83.8874,"MEAN_ANOMALY":276.2431,"EPHEMERIS_TYPE":0,"CLASSIFICATION_TYPE":"U","NORAD_CAT_ID":44059,"ELEMENT_SET_NO":999,"REV_AT_EPOCH":33106,"BSTAR":0.00026077274,"MEAN_MOTION_DOT":1.13e-6,"MEAN_MOTION_DDOT":0},{"OBJECT_NAME":"ONEWEB-0007","OBJECT_ID":"2019-010D","EPOCH":"2026-01-11T06:44:07.791072","MEAN_MOTION":13.15550622,"ECCENTRICITY":0.00016914,"INCLINATION":87.9007,"RA_OF_ASC_NODE":290.5437,"ARG_OF_PERICENTER":63.0715,"MEAN_ANOMALY":297.0588,"EPHEMERIS_TYPE":0,"CLASSIFICATION_TYPE":"U","NORAD_CAT_ID":44060,"ELEMENT_SET_NO":999,"REV_AT_EPOCH":33074,"BSTAR":0.00023814683,"MEAN_MOTION_DOT":1.02e-6,"MEAN_MOTION_DDOT":0},{"OBJECT_NAME":"ONEWEB-0006","OBJECT_ID":"2019-010E","EPOCH":"2026-01-11T06:49:50.656512","MEAN_MOTION":13.15550012,"ECCENTRICITY":0.00014821,"INCLINATION":87.9013,"RA_OF_ASC_NODE":290.4917,"ARG_OF_PERICENTER":67.8404,"MEAN_ANOMALY":292.2883,"EPHEMERIS_TYPE":0,"CLASSIFICATION_TYPE":"U","NORAD_CAT_ID":44061,"ELEMENT_SET_NO":999,"REV_AT_EPOCH":33079,"BSTAR":0.00026072671,"MEAN_MOTION_DOT":1.11e-6,"MEAN_MOTION_DDOT":0},{"OBJECT_NAME":"ONEWEB-0011","OBJECT_ID":"2019-010F","EPOCH":"2026-01-11T04:14:41.133408","MEAN_MOTION":13.15548082,"ECCENTRICITY":0.00015064,"INCLINATION":87.9014,"RA_OF_ASC_NODE":290.5216,"ARG_OF_PERICENTER":80.5351,"MEAN_ANOMALY":279.595,"EPHEMERIS_TYPE":0,"CLASSIFICATION_TYPE":"U","NORAD_CAT_ID":44062,"ELEMENT_SET_NO":999,"REV_AT_EPOCH":33077,"BSTAR":-0.00029753886,"MEAN_MOTION_DOT":-9.9e-7,"MEAN_MOTION_DDOT":0},{"OBJECT_NAME":"ONEWEB-0013","OBJECT_ID":"2020-008A","EPOCH":"2026-01-11T03:28:43.881312","MEAN_MOTION":13.09443458,"ECCENTRICITY":0.00025803,"INCLINATION":87.8489,"RA_OF_ASC_NODE":84.5507,"ARG_OF_PERICENTER":89.2119,"MEAN_ANOMALY":270.9303,"EPHEMERIS_TYPE":0,"CLASSIFICATION_TYPE":"U","NORAD_CAT_ID":45131,"ELEMENT_SET_NO":999,"REV_AT_EPOCH":28551,"BSTAR":-0.002094445,"MEAN_MOTION_DOT":-7.09e-6,"MEAN_MOTION_DDOT":0},{"OBJECT_NAME":"ONEWEB-0017","OBJECT_ID":"2020-008B","EPOCH":"2026-01-11T03:52:26.132448","MEAN_MOTION":13.10370346,"ECCENTRICITY":0.00015307,"INCLINATION":87.8774,"RA_OF_ASC_NODE":67.5754,"ARG_OF_PERICENTER":101.6045,"MEAN_ANOMALY":258.5254,"EPHEMERIS_TYPE":0,"CLASSIFICATION_TYPE":"U","NORAD_CAT_ID":45132,"ELEMENT_SET_NO":999,"REV_AT_EPOCH":28738,"BSTAR":-0.00028085197,"MEAN_MOTION_DOT":-8.5e-7,"MEAN_MOTION_DDOT":0},{"OBJECT_NAME":"ONEWEB-0020","OBJECT_ID":"2020-008C","EPOCH":"2026-01-11T03:09:25.688448","MEAN_MOTION":13.10375329,"ECCENTRICITY":0.00018254,"INCLINATION":87.8786,"RA_OF_ASC_NODE":67.569,"ARG_OF_PERICENTER":106.5526,"MEAN_ANOMALY":253.5802,"EPHEMERIS_TYPE":0,"CLASSIFICATION_TYPE":"U","NORAD_CAT_ID":45133,"ELEMENT_SET_NO":999,"REV_AT_EPOCH":28777,"BSTAR":0.0014067941,"MEAN_MOTION_DOT":5.04e-6,"MEAN_MOTION_DDOT":0},{"OBJECT_NAME":"ONEWEB-0021","OBJECT_ID":"2020-008D","EPOCH":"2026-01-11T03:30:56.563200","MEAN_MOTION":13.10371266,"ECCENTRICITY":0.00017511,"INCLINATION":87.8773,"RA_OF_ASC_NODE":67.5942,"ARG_OF_PERICENTER":96.707,"MEAN_ANOMALY":263.4257,"EPHEMERIS_TYPE":0,"CLASSIFICATION_TYPE":"U","NORAD_CAT_ID":45134,"ELEMENT_SET_NO":999,"REV_AT_EPOCH":28808,"BSTAR":0.0016218987,"MEAN_MOTION_DOT":5.79e-6,"MEAN_MOTION_DDOT":0},{"OBJECT_NAME":"ONEWEB-0023","OBJECT_ID":"2020-008F","EPOCH":"2026-01-11T03:46:27.701184","MEAN_MOTION":13.10369879,"ECCENTRICITY":0.00019298,"INCLINATION":87.877,"RA_OF_ASC_NODE":67.5726,"ARG_OF_PERICENTER":97.9464,"MEAN_ANOMALY":262.1883,"EPHEMERIS_TYPE":0,"CLASSIFICATION_TYPE":"U","NORAD_CAT_ID":45136,"ELEMENT_SET_NO":999,"REV_AT_EPOCH":28751,"BSTAR":0.00013592391,"MEAN_MOTION_DOT":6.0e-7,"MEAN_MOTION_DDOT":0},{"OBJECT_NAME":"ONEWEB-0024","OBJECT_ID":"2020-008G","EPOCH":"2026-01-11T03:07:02.175456","MEAN_MOTION":13.10375583,"ECCENTRICITY":0.00017242,"INCLINATION":87.8794,"RA_OF_ASC_NODE":67.5543,"ARG_OF_PERICENTER":100.1195,"MEAN_ANOMALY":260.0127,"EPHEMERIS_TYPE":0,"CLASSIFICATION_TYPE":"U","NORAD_CAT_ID":45137,"ELEMENT_SET_NO":999,"REV_AT_EPOCH":28767,"BSTAR":0.001293462,"MEAN_MOTION_DOT":4.64e-6,"MEAN_MOTION_DDOT":0},{"OBJECT_NAME":"ONEWEB-0025","OBJECT_ID":"2020-008H","EPOCH":"2026-01-11T03:32:08.191392","MEAN_MOTION":13.10371364,"ECCENTRICITY":0.00020485,"INCLINATION":87.8781,"RA_OF_ASC_NODE":67.5508,"ARG_OF_PERICENTER":94.63,"MEAN_ANOMALY":265.5061,"EPHEMERIS_TYPE":0,"CLASSIFICATION_TYPE":"U","NORAD_CAT_ID":45138,"ELEMENT_SET_NO":999,"REV_AT_EPOCH":28800,"BSTAR":0.0014252797,"MEAN_MOTION_DOT":5.1e-6,"MEAN_MOTION_DDOT":0},{"OBJECT_NAME":"ONEWEB-0026","OBJECT_ID":"2020-008J","EPOCH":"2026-01-11T03:21:18.573120","MEAN_MOTION":13.11417903,"ECCENTRICITY":0.00016593,"INCLINATION":87.8828,"RA_OF_ASC_NODE":52.3307,"ARG_OF_PERICENTER":100.8808,"MEAN_ANOMALY":259.2507,"EPHEMERIS_TYPE":0,"CLASSIFICATION_TYPE":"U","NORAD_CAT_ID":45139,"ELEMENT_SET_NO":999,"REV_AT_EPOCH":29052,"BSTAR":-0.0012668233,"MEAN_MOTION_DOT":-4.36e-6,"MEAN_MOTION_DDOT":0},{"OBJECT_NAME":"ONEWEB-0028","OBJECT_ID":"2020-008K","EPOCH":"2026-01-11T04:08:57.038496","MEAN_MOTION":13.11417808,"ECCENTRICITY":0.00023299,"INCLINATION":87.8822,"RA_OF_ASC_NODE":52.3363,"ARG_OF_PERICENTER":87.5989,"MEAN_ANOMALY":272.5406,"EPHEMERIS_TYPE":0,"CLASSIFICATION_TYPE":"U","NORAD_CAT_ID":45140,"ELEMENT_SET_NO":999,"REV_AT_EPOCH":28804,"BSTAR":0.001769544,"MEAN_MOTION_DOT":6.4e-6,"MEAN_MOTION_DDOT":0},{"OBJECT_NAME":"ONEWEB-0032","OBJECT_ID":"2020-008L","EPOCH":"2026-01-11T03:54:49.161600","MEAN_MOTION":13.10370058,"ECCENTRICITY":0.00019288,"INCLINATION":87.8776,"RA_OF_ASC_NODE":67.5751,"ARG_OF_PERICENTER":97.999,"MEAN_ANOMALY":262.1357,"EPHEMERIS_TYPE":0,"CLASSIFICATION_TYPE":"U","NORAD_CAT_ID":45141,"ELEMENT_SET_NO":999,"REV_AT_EPOCH":28773,"BSTAR":-0.00049238579,"MEAN_MOTION_DOT":-1.59e-6,"MEAN_MOTION_DDOT":0},{"OBJECT_NAME":"ONEWEB-0033","OBJECT_ID":"2020-008M","EPOCH":"2026-01-11T03:18:59.480352","MEAN_MOTION":13.10373693,"ECCENTRICITY":0.00012924,"INCLINATION":87.8777,"RA_OF_ASC_NODE":67.5915,"ARG_OF_PERICENTER":110.0199,"MEAN_ANOMALY":250.1068,"EPHEMERIS_TYPE":0,"CLASSIFICATION_TYPE":"U","NORAD_CAT_ID":45142,"ELEMENT_SET_NO":999,"REV_AT_EPOCH":28764,"BSTAR":0.0018830697,"MEAN_MOTION_DOT":6.7e-6,"MEAN_MOTION_DDOT":0}]
