ONEWEB-0012             
1 44057U 19010A   26011.16745877  .00000031  00000+0  47860-4 0  9998
2 44057  87.9022 260.0521 0001905  71.9824 288.1514 13.16594718330901
ONEWEB-0010             
1 44058U 19010B   26011.19279395  .00000076  00000+0  16389-3 0  9999
2 44058  87.9032 260.0396 0001176  67.4268 292.6987 13.16594755330955
ONEWEB-0008             
1 44059U 19010C   26011.14212874  .00000113  00000+0  26077-3 0  9991
2 44059  87.9034 260.0470 0001529  83.8874 276.2431 13.16594626331060
ONEWEB-0007             
1 44060U 19010D   26011.28064573  .00000102  00000+0  23815-3 0  9994
2 44060  87.9007 290.5437 0001691  63.0715 297.0588 13.15550622330742
ONEWEB-0006             
1 44061U 19010E   26011.28461408  .00000111  00000+0  26073-3 0  9992
2 44061  87.9013 290.4917 0001482  67.8404 292.2883 13.15550012330790
ONEWEB-0011             
1 44062U 19010F   26011.17686497 -.00000099  00000+0 -29754-3 0  9994
2 44062  87.9014 290.5216 0001506  80.5351 279.5950 13.15548082330770
ONEWEB-0013             
1 45131U 20008A   26011.14495233 -.00000709  00000+0 -20944-2 0  9993
2 45131  87.8489  84.5507 0002580  89.2119 270.9303 13.09443458285510
ONEWEB-0017             
1 45132U 20008B   26011.16141357 -.00000085  00000+0 -28085-3 0  9993
2 45132  87.8774  67.5754 0001530 101.6045 258.5254 13.10370346287385
ONEWEB-0020             
1 45133U 20008C   26011.13154732  .00000504  00000+0  14068-2 0  9991
2 45133  87.8786  67.5690 0001825 106.5526 253.5802 13.10375329287776
ONEWEB-0021             
1 45134U 20008D   26011.14648800  .00000579  00000+0  16219-2 0  9999
2 45134  87.8773  67.5942 0001751  96.7070 263.4257 13.10371266288080
ONEWEB-0023             
1 45136U 20008F   26011.15726506  .00000060  00000+0  13592-3 0  9999
2 45136  87.8770  67.5726 0001929  97.9464 262.1883 13.10369879287511
ONEWEB-0024             
1 45137U 20008G   26011.12988629  .00000464  00000+0  12935-2 0  9990
2 45137  87.8794  67.5543 0001724 100.1195 260.0127 13.10375583287670
ONEWEB-0025             
1 45138U 20008H   26011.14731703  .00000510  00000+0  14253-2 0  9999
2 45138  87.8781  67.5508 0002048  94.6300 265.5061 13.10371364288001
ONEWEB-0026             
1 45139U 20008J   26011.13979830 -.00000436  00000+0 -12668-2 0  9991
2 45139  87.8828  52.3307 0001659 100.8808 259.2507 13.11417903290529
ONEWEB-0028             
1 45140U 20008K   26011.17288239  .00000640  00000+0  17695-2 0  9993
2 45140  87.8822  52.3363 0002329  87.5989 272.5406 13.11417808288047
ONEWEB-0032             
1 45141U 20008L   26011.16306900 -.00000159  00000+0 -49239-3 0  9996
2 45141  87.8776  67.5751 0001928  97.9990 262.1357 13.10370058287735
ONEWEB-0033             
1 45142U 20008M   26011.13818843  .00000670  00000+0  18831-2 0  9997
2 45142  87.8777  67.5915 0001292 110.0199 250.1068 13.10373693287645
